[{"OBJECT_NAME":"QIANFAN-69","OBJECT_ID":"2025-016Q","EPOCH":"2026-03-02T18:15:31.437792","MEAN_MOTION":13.5099334,"ECCENTRICITY":0.0017888,"INCLINATION":88.967,"RA_OF_ASC_NODE":94.6714,"ARG_OF_PERICENTER":111.986,"MEAN_ANOMALY":248.3193,"EPHEMERIS_TYPE":0,"CLASSIFICATION_TYPE":"U","NORAD_CAT_ID":62799,"ELEMENT_SET_NO":999,"REV_AT_EPOCH":5808,"BSTAR":7.4609e-5,"MEAN_MOTION_DOT":6.0e-7,"MEAN_MOTION_DDOT":0},{"OBJECT_NAME":"QIANFAN-70","OBJECT_ID":"2025-016R","EPOCH":"2026-03-02T18:39:08.581824","MEAN_MOTION":13.50996891,"ECCENTRICITY":0.0017546,"INCLINATION":88.969,"RA_OF_ASC_NODE":94.8251,"ARG_OF_PERICENTER":103.4385,"MEAN_ANOMALY":256.8723,"EPHEMERIS_TYPE":0,"CLASSIFICATION_TYPE":"U","NORAD_CAT_ID":62800,"ELEMENT_SET_NO":999,"REV_AT_EPOCH":5804,"BSTAR":7.9327e-5,"MEAN_MOTION_DOT":6.4e-7,"MEAN_MOTION_DDOT":0},{"OBJECT_NAME":"QIANFAN-71","OBJECT_ID":"2025-016S","EPOCH":"2026-03-02T18:33:08.064000","MEAN_MOTION":13.50996343,"ECCENTRICITY":0.0017765,"INCLINATION":88.9684,"RA_OF_ASC_NODE":94.8001,"ARG_OF_PERICENTER":115.0887,"MEAN_ANOMALY":245.211,"EPHEMERIS_TYPE":0,"CLASSIFICATION_TYPE":"U","NORAD_CAT_ID":62801,"ELEMENT_SET_NO":999,"REV_AT_EPOCH":5804,"BSTAR":6.2318e-5,"MEAN_MOTION_DOT":5.3e-7,"MEAN_MOTION_DDOT":0},{"OBJECT_NAME":"QIANFAN-72","OBJECT_ID":"2025-016T","EPOCH":"2026-03-02T18:56:50.773920","MEAN_MOTION":13.50996031,"ECCENTRICITY":0.0020936,"INCLINATION":88.9675,"RA_OF_ASC_NODE":94.8039,"ARG_OF_PERICENTER":121.9434,"MEAN_ANOMALY":238.3757,"EPHEMERIS_TYPE":0,"CLASSIFICATION_TYPE":"U","NORAD_CAT_ID":62802,"ELEMENT_SET_NO":999,"REV_AT_EPOCH":5803,"BSTAR":6.1643e-5,"MEAN_MOTION_DOT":5.2e-7,"MEAN_MOTION_DDOT":0},{"OBJECT_NAME":"QIANFAN-73","OBJECT_ID":"2025-046A","EPOCH":"2026-03-02T17:48:52.408800","MEAN_MOTION":13.50997453,"ECCENTRICITY":0.0013126,"INCLINATION":88.9765,"RA_OF_ASC_NODE":311.7612,"ARG_OF_PERICENTER":252.5335,"MEAN_ANOMALY":107.4381,"EPHEMERIS_TYPE":0,"CLASSIFICATION_TYPE":"U","NORAD_CAT_ID":63159,"ELEMENT_SET_NO":999,"REV_AT_EPOCH":5821,"BSTAR":0.00024406,"MEAN_MOTION_DOT":1.7e-6,"MEAN_MOTION_DDOT":0},{"OBJECT_NAME":"QIANFAN-74","OBJECT_ID":"2025-046B","EPOCH":"2026-03-02T19:11:54.679488","MEAN_MOTION":13.50997167,"ECCENTRICITY":0.0001885,"INCLINATION":88.9765,"RA_OF_ASC_NODE":311.644,"ARG_OF_PERICENTER":78.0557,"MEAN_ANOMALY":282.0805,"EPHEMERIS_TYPE":0,"CLASSIFICATION_TYPE":"U","NORAD_CAT_ID":63160,"ELEMENT_SET_NO":999,"REV_AT_EPOCH":5828,"BSTAR":0.00029087,"MEAN_MOTION_DOT":2.0e-6,"MEAN_MOTION_DDOT":0},{"OBJECT_NAME":"QIANFAN-75","OBJECT_ID":"2025-046C","EPOCH":"2026-03-02T18:53:23.691264","MEAN_MOTION":13.51000983,"ECCENTRICITY":0.0014322,"INCLINATION":88.9767,"RA_OF_ASC_NODE":311.8801,"ARG_OF_PERICENTER":256.0258,"MEAN_ANOMALY":103.9301,"EPHEMERIS_TYPE":0,"CLASSIFICATION_TYPE":"U","NORAD_CAT_ID":63161,"ELEMENT_SET_NO":999,"REV_AT_EPOCH":5815,"BSTAR":0.0002842,"MEAN_MOTION_DOT":1.95e-6,"MEAN_MOTION_DDOT":0},{"OBJECT_NAME":"QIANFAN-76","OBJECT_ID":"2025-046D","EPOCH":"2026-03-02T18:48:08.664768","MEAN_MOTION":13.51013344,"ECCENTRICITY":0.0011874,"INCLINATION":88.9766,"RA_OF_ASC_NODE":311.8604,"ARG_OF_PERICENTER":256.7968,"MEAN_ANOMALY":103.1858,"EPHEMERIS_TYPE":0,"CLASSIFICATION_TYPE":"U","NORAD_CAT_ID":63162,"ELEMENT_SET_NO":999,"REV_AT_EPOCH":5816,"BSTAR":0.00029747,"MEAN_MOTION_DOT":2.04e-6,"MEAN_MOTION_DDOT":0},{"OBJECT_NAME":"QIANFAN-77","OBJECT_ID":"2025-046E","EPOCH":"2026-03-02T17:48:46.348704","MEAN_MOTION":13.96172293,"ECCENTRICITY":0.0014153,"INCLINATION":88.9762,"RA_OF_ASC_NODE":309.2145,"ARG_OF_PERICENTER":183.768,"MEAN_ANOMALY":176.3393,"EPHEMERIS_TYPE":0,"CLASSIFICATION_TYPE":"U","NORAD_CAT_ID":63163,"ELEMENT_SET_NO":999,"REV_AT_EPOCH":5961,"BSTAR":0.00030344,"MEAN_MOTION_DOT":4.31e-6,"MEAN_MOTION_DDOT":0},{"OBJECT_NAME":"QIANFAN-78","OBJECT_ID":"2025-046F","EPOCH":"2026-03-02T18:00:43.845408","MEAN_MOTION":13.50997491,"ECCENTRICITY":0.0013216,"INCLINATION":88.9765,"RA_OF_ASC_NODE":311.7271,"ARG_OF_PERICENTER":259.5931,"MEAN_ANOMALY":100.373,"EPHEMERIS_TYPE":0,"CLASSIFICATION_TYPE":"U","NORAD_CAT_ID":63164,"ELEMENT_SET_NO":999,"REV_AT_EPOCH":5823,"BSTAR":0.00030383,"MEAN_MOTION_DOT":2.08e-6,"MEAN_MOTION_DDOT":0},{"OBJECT_NAME":"QIANFAN-79","OBJECT_ID":"2025-046G","EPOCH":"2026-03-02T18:42:26.318592","MEAN_MOTION":13.51007695,"ECCENTRICITY":0.0013061,"INCLINATION":88.9769,"RA_OF_ASC_NODE":311.8348,"ARG_OF_PERICENTER":257.7213,"MEAN_ANOMALY":102.2475,"EPHEMERIS_TYPE":0,"CLASSIFICATION_TYPE":"U","NORAD_CAT_ID":63165,"ELEMENT_SET_NO":999,"REV_AT_EPOCH":5818,"BSTAR":0.00028722,"MEAN_MOTION_DOT":1.97e-6,"MEAN_MOTION_DDOT":0},{"OBJECT_NAME":"QIANFAN-80","OBJECT_ID":"2025-046H","EPOCH":"2026-03-02T19:05:52.584000","MEAN_MOTION":13.5099724,"ECCENTRICITY":0.0011907,"INCLINATION":88.9766,"RA_OF_ASC_NODE":311.5379,"ARG_OF_PERICENTER":262.4757,"MEAN_ANOMALY":97.5041,"EPHEMERIS_TYPE":0,"CLASSIFICATION_TYPE":"U","NORAD_CAT_ID":63166,"ELEMENT_SET_NO":999,"REV_AT_EPOCH":5834,"BSTAR":0.0002697,"MEAN_MOTION_DOT":1.86e-6,"MEAN_MOTION_DDOT":0},{"OBJECT_NAME":"QIANFAN-81","OBJECT_ID":"2025-046J","EPOCH":"2026-03-02T18:34:22.379232","MEAN_MOTION":13.50983209,"ECCENTRICITY":0.0012942,"INCLINATION":88.9766,"RA_OF_ASC_NODE":311.6079,"ARG_OF_PERICENTER":250.1586,"MEAN_ANOMALY":109.817,"EPHEMERIS_TYPE":0,"CLASSIFICATION_TYPE":"U","NORAD_CAT_ID":63167,"ELEMENT_SET_NO":999,"REV_AT_EPOCH":5829,"BSTAR":0.000251,"MEAN_MOTION_DOT":1.74e-6,"MEAN_MOTION_DDOT":0},{"OBJECT_NAME":"QIANFAN-82","OBJECT_ID":"2025-046K","EPOCH":"2026-03-02T19:23:42.984096","MEAN_MOTION":13.50998658,"ECCENTRICITY":0.0011025,"INCLINATION":88.9766,"RA_OF_ASC_NODE":311.6484,"ARG_OF_PERICENTER":258.1551,"MEAN_ANOMALY":101.8363,"EPHEMERIS_TYPE":0,"CLASSIFICATION_TYPE":"U","NORAD_CAT_ID":63168,"ELEMENT_SET_NO":999,"REV_AT_EPOCH":5828,"BSTAR":0.00026113,"MEAN_MOTION_DOT":1.81e-6,"MEAN_MOTION_DDOT":0},{"OBJECT_NAME":"QIANFAN-83","OBJECT_ID":"2025-046L","EPOCH":"2026-03-02T18:38:12.412320","MEAN_MOTION":13.62019298,"ECCENTRICITY":0.0012362,"INCLINATION":88.9766,"RA_OF_ASC_NODE":311.2708,"ARG_OF_PERICENTER":235.9572,"MEAN_ANOMALY":124.0412,"EPHEMERIS_TYPE":0,"CLASSIFICATION_TYPE":"U","NORAD_CAT_ID":63169,"ELEMENT_SET_NO":999,"REV_AT_EPOCH":5849,"BSTAR":0.0003592,"MEAN_MOTION_DOT":2.89e-6,"MEAN_MOTION_DDOT":0},{"OBJECT_NAME":"QIANFAN-84","OBJECT_ID":"2025-046M","EPOCH":"2026-03-02T18:17:01.394880","MEAN_MOTION":13.50973199,"ECCENTRICITY":0.0013972,"INCLINATION":88.9766,"RA_OF_ASC_NODE":311.7855,"ARG_OF_PERICENTER":254.0835,"MEAN_ANOMALY":105.8777,"EPHEMERIS_TYPE":0,"CLASSIFICATION_TYPE":"U","NORAD_CAT_ID":63170,"ELEMENT_SET_NO":999,"REV_AT_EPOCH":5820,"BSTAR":0.00017096,"MEAN_MOTION_DOT":1.22e-6,"MEAN_MOTION_DDOT":0},{"OBJECT_NAME":"QIANFAN-85","OBJECT_ID":"2025-046N","EPOCH":"2026-03-02T18:12:35.722656","MEAN_MOTION":13.51001346,"ECCENTRICITY":0.0011433,"INCLINATION":88.9765,"RA_OF_ASC_NODE":311.6575,"ARG_OF_PERICENTER":256.962,"MEAN_ANOMALY":103.0255,"EPHEMERIS_TYPE":0,"CLASSIFICATION_TYPE":"U","NORAD_CAT_ID":63171,"ELEMENT_SET_NO":999,"REV_AT_EPOCH":5827,"BSTAR":0.00026417,"MEAN_MOTION_DOT":1.83e-6,"MEAN_MOTION_DDOT":0}]
