QIANFAN-69              
1 62799U 25016Q   26061.76078053  .00000060  00000+0  74609-4 0  9993
2 62799  88.9670  94.6714 0017888 111.9860 248.3193 13.50993340 58080
QIANFAN-70              
1 62800U 25016R   26061.77718266  .00000064  00000+0  79327-4 0  9990
2 62800  88.9690  94.8251 0017546 103.4385 256.8723 13.50996891 58045
QIANFAN-71              
1 62801U 25016S   26061.77301000  .00000053  00000+0  62318-4 0  9995
2 62801  88.9684  94.8001 0017765 115.0887 245.2110 13.50996343 58045
QIANFAN-72              
1 62802U 25016T   26061.78947655  .00000052  00000+0  61643-4 0  9998
2 62802  88.9675  94.8039 0020936 121.9434 238.3757 13.50996031 58038
QIANFAN-73              
1 63159U 25046A   26061.74227325  .00000170  00000+0  24406-3 0  9994
2 63159  88.9765 311.7612 0013126 252.5335 107.4381 13.50997453 58214
QIANFAN-74              
1 63160U 25046B   26061.79993842  .00000200  00000+0  29087-3 0  9999
2 63160  88.9765 311.6440 0001885  78.0557 282.0805 13.50997167 58280
QIANFAN-75              
1 63161U 25046C   26061.78707976  .00000195  00000+0  28420-3 0  9993
2 63161  88.9767 311.8801 0014322 256.0258 103.9301 13.51000983 58152
QIANFAN-76              
1 63162U 25046D   26061.78343362  .00000204  00000+0  29747-3 0  9993
2 63162  88.9766 311.8604 0011874 256.7968 103.1858 13.51013344 58162
QIANFAN-77              
1 63163U 25046E   26061.74220311  .00000431  00000+0  30344-3 0  9995
2 63163  88.9762 309.2145 0014153 183.7680 176.3393 13.96172293 59618
QIANFAN-78              
1 63164U 25046F   26061.75050747  .00000208  00000+0  30383-3 0  9996
2 63164  88.9765 311.7271 0013216 259.5931 100.3730 13.50997491 58234
QIANFAN-79              
1 63165U 25046G   26061.77947128  .00000197  00000+0  28722-3 0  9998
2 63165  88.9769 311.8348 0013061 257.7213 102.2475 13.51007695 58186
QIANFAN-80              
1 63166U 25046H   26061.79574750  .00000186  00000+0  26970-3 0  9999
2 63166  88.9766 311.5379 0011907 262.4757  97.5041 13.50997240 58344
QIANFAN-81              
1 63167U 25046J   26061.77387013  .00000174  00000+0  25100-3 0  9993
2 63167  88.9766 311.6079 0012942 250.1586 109.8170 13.50983209 58291
QIANFAN-82              
1 63168U 25046K   26061.80813639  .00000181  00000+0  26113-3 0  9999
2 63168  88.9766 311.6484 0011025 258.1551 101.8363 13.50998658 58282
QIANFAN-83              
1 63169U 25046L   26061.77653255  .00000289  00000+0  35920-3 0  9997
2 63169  88.9766 311.2708 0012362 235.9572 124.0412 13.62019298 58491
QIANFAN-84              
1 63170U 25046M   26061.76182170  .00000122  00000+0  17096-3 0  9991
2 63170  88.9766 311.7855 0013972 254.0835 105.8777 13.50973199 58209
QIANFAN-85              
1 63171U 25046N   26061.75874679  .00000183  00000+0  26417-3 0  9997
2 63171  88.9765 311.6575 0011433 256.9620 103.0255 13.51001346 58275
